[
    {
        "OBJECT_NAME": "COSMOS 1975",
        "OBJECT_ID": "1988-093A",
        "EPOCH": "2026-06-06T16:26:25.420416",
        "MEAN_MOTION": 15.29189896,
        "ECCENTRICITY": 0.00103558,
        "INCLINATION": 82.52,
        "RA_OF_ASC_NODE": 28.2651,
        "ARG_OF_PERICENTER": 209.1672,
        "MEAN_ANOMALY": 150.8991,
        "EPHEMERIS_TYPE": 0,
        "CLASSIFICATION_TYPE": "U",
        "NORAD_CAT_ID": 19573,
        "ELEMENT_SET_NO": 999,
        "REV_AT_EPOCH": 3300,
        "BSTAR": 0.00027707572,
        "MEAN_MOTION_DOT": 7.891e-05,
        "MEAN_MOTION_DDOT": 0
    },
    {
        "OBJECT_NAME": "SL-14 R/B",
        "OBJECT_ID": "1988-093B",
        "EPOCH": "2026-06-06T13:34:40.070784",
        "MEAN_MOTION": 14.85733758,
        "ECCENTRICITY": 0.00221636,
        "INCLINATION": 82.5305,
        "RA_OF_ASC_NODE": 318.6176,
        "ARG_OF_PERICENTER": 103.1974,
        "MEAN_ANOMALY": 325.5188,
        "EPHEMERIS_TYPE": 0,
        "CLASSIFICATION_TYPE": "U",
        "NORAD_CAT_ID": 19574,
        "ELEMENT_SET_NO": 999,
        "REV_AT_EPOCH": 1421,
        "BSTAR": 5.6199203e-05,
        "MEAN_MOTION_DOT": 5.15e-06,
        "MEAN_MOTION_DDOT": 0
    },
    {
        "OBJECT_NAME": "SL-16 R/B",
        "OBJECT_ID": "1988-102B",
        "EPOCH": "2026-06-06T18:19:06.596256",
        "MEAN_MOTION": 14.16166658,
        "ECCENTRICITY": 0.00161163,
        "INCLINATION": 71.0005,
        "RA_OF_ASC_NODE": 324.0728,
        "ARG_OF_PERICENTER": 239.6836,
        "MEAN_ANOMALY": 120.2694,
        "EPHEMERIS_TYPE": 0,
        "CLASSIFICATION_TYPE": "U",
        "NORAD_CAT_ID": 19650,
        "ELEMENT_SET_NO": 999,
        "REV_AT_EPOCH": 93950,
        "BSTAR": 2.5046274e-05,
        "MEAN_MOTION_DOT": 2e-08,
        "MEAN_MOTION_DDOT": 0
    },
    {
        "OBJECT_NAME": "INTERCOSMOS 24",
        "OBJECT_ID": "1989-080A",
        "EPOCH": "2026-06-06T10:52:26.405760",
        "MEAN_MOTION": 12.59644676,
        "ECCENTRICITY": 0.11883221,
        "INCLINATION": 82.6075,
        "RA_OF_ASC_NODE": 46.6282,
        "ARG_OF_PERICENTER": 86.79,
        "MEAN_ANOMALY": 286.8152,
        "EPHEMERIS_TYPE": 0,
        "CLASSIFICATION_TYPE": "U",
        "NORAD_CAT_ID": 20261,
        "ELEMENT_SET_NO": 999,
        "REV_AT_EPOCH": 67797,
        "BSTAR": 0.00027426973,
        "MEAN_MOTION_DOT": 9.63e-06,
        "MEAN_MOTION_DDOT": 0
    },
    {
        "OBJECT_NAME": "SL-14 R/B",
        "OBJECT_ID": "1989-080C",
        "EPOCH": "2026-06-06T14:28:02.587008",
        "MEAN_MOTION": 12.50563466,
        "ECCENTRICITY": 0.1229364,
        "INCLINATION": 82.5917,
        "RA_OF_ASC_NODE": 116.1069,
        "ARG_OF_PERICENTER": 341.6182,
        "MEAN_ANOMALY": 14.3923,
        "EPHEMERIS_TYPE": 0,
        "CLASSIFICATION_TYPE": "U",
        "NORAD_CAT_ID": 20262,
        "ELEMENT_SET_NO": 999,
        "REV_AT_EPOCH": 67126,
        "BSTAR": 0.00015141,
        "MEAN_MOTION_DOT": 5.08e-06,
        "MEAN_MOTION_DDOT": 0
    },
    {
        "OBJECT_NAME": "DELTA 1 R/B",
        "OBJECT_ID": "1989-089B",
        "EPOCH": "2026-06-06T19:18:13.775904",
        "MEAN_MOTION": 14.50724485,
        "ECCENTRICITY": 0.00683601,
        "INCLINATION": 97.0641,
        "RA_OF_ASC_NODE": 351.0239,
        "ARG_OF_PERICENTER": 199.7922,
        "MEAN_ANOMALY": 160.0622,
        "EPHEMERIS_TYPE": 0,
        "CLASSIFICATION_TYPE": "U",
        "NORAD_CAT_ID": 20323,
        "ELEMENT_SET_NO": 999,
        "REV_AT_EPOCH": 90865,
        "BSTAR": 0.00010015674,
        "MEAN_MOTION_DOT": 3.7e-06,
        "MEAN_MOTION_DDOT": 0
    },
    {
        "OBJECT_NAME": "ARIANE 40 R/B",
        "OBJECT_ID": "1990-005H",
        "EPOCH": "2026-06-06T14:54:51.526080",
        "MEAN_MOTION": 14.39921906,
        "ECCENTRICITY": 0.00089195,
        "INCLINATION": 98.2964,
        "RA_OF_ASC_NODE": 215.5656,
        "ARG_OF_PERICENTER": 300.8443,
        "MEAN_ANOMALY": 59.1867,
        "EPHEMERIS_TYPE": 0,
        "CLASSIFICATION_TYPE": "U",
        "NORAD_CAT_ID": 20443,
        "ELEMENT_SET_NO": 999,
        "REV_AT_EPOCH": 90560,
        "BSTAR": 9.8236899e-05,
        "MEAN_MOTION_DOT": 2.67e-06,
        "MEAN_MOTION_DDOT": 0
    },
    {
        "OBJECT_NAME": "DELTA 2 R/B(1)",
        "OBJECT_ID": "1990-008B",
        "EPOCH": "2026-06-06T02:41:03.363072",
        "MEAN_MOTION": 15.67094261,
        "ECCENTRICITY": 0.0068397,
        "INCLINATION": 35.5996,
        "RA_OF_ASC_NODE": 309.6616,
        "ARG_OF_PERICENTER": 9.6562,
        "MEAN_ANOMALY": 350.5477,
        "EPHEMERIS_TYPE": 0,
        "CLASSIFICATION_TYPE": "U",
        "NORAD_CAT_ID": 20453,
        "ELEMENT_SET_NO": 999,
        "REV_AT_EPOCH": 93996,
        "BSTAR": 0.00079153,
        "MEAN_MOTION_DOT": 0.0010086,
        "MEAN_MOTION_DDOT": 0
    },
    {
        "OBJECT_NAME": "COSMOS 2058",
        "OBJECT_ID": "1990-010A",
        "EPOCH": "2026-06-06T13:07:07.945536",
        "MEAN_MOTION": 15.11943112,
        "ECCENTRICITY": 0.00104568,
        "INCLINATION": 82.4665,
        "RA_OF_ASC_NODE": 319.8499,
        "ARG_OF_PERICENTER": 36.011,
        "MEAN_ANOMALY": 324.1822,
        "EPHEMERIS_TYPE": 0,
        "CLASSIFICATION_TYPE": "U",
        "NORAD_CAT_ID": 20465,
        "ELEMENT_SET_NO": 999,
        "REV_AT_EPOCH": 95566,
        "BSTAR": 0.00022125667,
        "MEAN_MOTION_DOT": 3.825e-05,
        "MEAN_MOTION_DDOT": 0
    },
    {
        "OBJECT_NAME": "SL-14 R/B",
        "OBJECT_ID": "1990-010B",
        "EPOCH": "2026-06-06T13:54:11.020608",
        "MEAN_MOTION": 14.8363966,
        "ECCENTRICITY": 0.00200516,
        "INCLINATION": 82.5019,
        "RA_OF_ASC_NODE": 183.9072,
        "ARG_OF_PERICENTER": 11.5476,
        "MEAN_ANOMALY": 348.6194,
        "EPHEMERIS_TYPE": 0,
        "CLASSIFICATION_TYPE": "U",
        "NORAD_CAT_ID": 20466,
        "ELEMENT_SET_NO": 999,
        "REV_AT_EPOCH": 94166,
        "BSTAR": 4.2894163e-05,
        "MEAN_MOTION_DOT": 3.79e-06,
        "MEAN_MOTION_DDOT": 0
    },
    {
        "OBJECT_NAME": "SL-14 R/B",
        "OBJECT_ID": "1990-018B",
        "EPOCH": "2026-06-06T05:02:27.843072",
        "MEAN_MOTION": 14.82209102,
        "ECCENTRICITY": 0.00167752,
        "INCLINATION": 82.5201,
        "RA_OF_ASC_NODE": 140.3677,
        "ARG_OF_PERICENTER": 155.6622,
        "MEAN_ANOMALY": 204.5388,
        "EPHEMERIS_TYPE": 0,
        "CLASSIFICATION_TYPE": "U",
        "NORAD_CAT_ID": 20511,
        "ELEMENT_SET_NO": 999,
        "REV_AT_EPOCH": 93569,
        "BSTAR": 5.0699231e-05,
        "MEAN_MOTION_DOT": 4.29e-06,
        "MEAN_MOTION_DDOT": 0
    },
    {
        "OBJECT_NAME": "HST",
        "OBJECT_ID": "1990-037B",
        "EPOCH": "2026-06-06T07:41:12.112512",
        "MEAN_MOTION": 15.30632786,
        "ECCENTRICITY": 0.00018855,
        "INCLINATION": 28.4714,
        "RA_OF_ASC_NODE": 154.838,
        "ARG_OF_PERICENTER": 34.6923,
        "MEAN_ANOMALY": 325.3796,
        "EPHEMERIS_TYPE": 0,
        "CLASSIFICATION_TYPE": "U",
        "NORAD_CAT_ID": 20580,
        "ELEMENT_SET_NO": 999,
        "REV_AT_EPOCH": 78690,
        "BSTAR": 0.0002178043,
        "MEAN_MOTION_DOT": 6.872e-05,
        "MEAN_MOTION_DDOT": 0
    },
    {
        "OBJECT_NAME": "SL-16 R/B",
        "OBJECT_ID": "1990-046B",
        "EPOCH": "2026-06-06T15:03:13.161024",
        "MEAN_MOTION": 14.1502042,
        "ECCENTRICITY": 0.00141408,
        "INCLINATION": 70.9979,
        "RA_OF_ASC_NODE": 111.1256,
        "ARG_OF_PERICENTER": 177.7915,
        "MEAN_ANOMALY": 182.3272,
        "EPHEMERIS_TYPE": 0,
        "CLASSIFICATION_TYPE": "U",
        "NORAD_CAT_ID": 20625,
        "ELEMENT_SET_NO": 999,
        "REV_AT_EPOCH": 86097,
        "BSTAR": 0.00015697479,
        "MEAN_MOTION_DOT": 2.57e-06,
        "MEAN_MOTION_DDOT": 0
    }
]